{
  "type": "FeatureCollection",
  "features": [
    {
      "type": "Feature",
      "properties": {
        "norad_id": 64902,
        "name": "CO3D 2",
        "group": "resource",
        "lat": -72.4124387548736,
        "lon": 82.52260653077472,
        "alt_km": 513.1740945545534,
        "timestamp": "2025-12-07T20:38:13.735530+00:00",
        "meta_object_name": "CO3D 2",
        "meta_object_id": "2025-156D",
        "meta_epoch": "2025-12-07T06:44:40.526304",
        "meta_mean_motion": 15.20195391,
        "meta_eccentricity": 9.07e-05,
        "meta_inclination": 97.4343,
        "meta_ra_of_asc_node": 57.6252,
        "meta_arg_of_pericenter": 92.9461,
        "meta_mean_anomaly": 267.1878,
        "meta_ephemeris_type": 0,
        "meta_classification_type": "U",
        "meta_norad_cat_id": 64902,
        "meta_element_set_no": 999,
        "meta_rev_at_epoch": 2037,
        "meta_bstar": 2.9077057e-05,
        "meta_mean_motion_dot": 5.62e-06,
        "meta_mean_motion_ddot": 0,
        "tle_line1": "1 64902U 25156D   25341.28102461  .00000562  00000+0  29077-4 0  9990",
        "tle_line2": "2 64902  97.4343  57.6252 0000907  92.9461 267.1878 15.20195391 20374"
      },
      "geometry": {
        "type": "Point",
        "coordinates": [
          82.52260653077472,
          -72.4124387548736
        ]
      }
    },
    {
      "type": "Feature",
      "properties": {
        "norad_id": 64903,
        "name": "CO3D 1",
        "group": "resource",
        "lat": -73.12737909842907,
        "lon": 83.69644340593348,
        "alt_km": 513.1980927079585,
        "timestamp": "2025-12-07T20:38:13.735540+00:00",
        "meta_object_name": "CO3D 1",
        "meta_object_id": "2025-156E",
        "meta_epoch": "2025-12-07T06:44:53.620224",
        "meta_mean_motion": 15.20204732,
        "meta_eccentricity": 9.842e-05,
        "meta_inclination": 97.4343,
        "meta_ra_of_asc_node": 57.6255,
        "meta_arg_of_pericenter": 106.116,
        "meta_mean_anomaly": 254.0184,
        "meta_ephemeris_type": 0,
        "meta_classification_type": "U",
        "meta_norad_cat_id": 64903,
        "meta_element_set_no": 999,
        "meta_rev_at_epoch": 2037,
        "meta_bstar": 0.00040016185,
        "meta_mean_motion_dot": 8.606e-05,
        "meta_mean_motion_ddot": 0,
        "tle_line1": "1 64903U 25156E   25341.28117616  .00008606  00000+0  40016-3 0  9991",
        "tle_line2": "2 64903  97.4343  57.6255 0000984 106.1160 254.0184 15.20204732 20372"
      },
      "geometry": {
        "type": "Point",
        "coordinates": [
          83.69644340593348,
          -73.12737909842907
        ]
      }
    },
    {
      "type": "Feature",
      "properties": {
        "norad_id": 66514,
        "name": "SENTINEL-6B",
        "group": "resource",
        "lat": -65.80611772435671,
        "lon": 74.3447910024629,
        "alt_km": 1315.4018119529437,
        "timestamp": "2025-12-07T20:38:13.735550+00:00",
        "meta_object_name": "SENTINEL-6B",
        "meta_object_id": "2025-264A",
        "meta_epoch": "2025-12-05T07:31:22.416096",
        "meta_mean_motion": 12.85877769,
        "meta_eccentricity": 0.00115488,
        "meta_inclination": 66.0393,
        "meta_ra_of_asc_node": 177.917,
        "meta_arg_of_pericenter": 268.4031,
        "meta_mean_anomaly": 91.5664,
        "meta_ephemeris_type": 0,
        "meta_classification_type": "U",
        "meta_norad_cat_id": 66514,
        "meta_element_set_no": 999,
        "meta_rev_at_epoch": 233,
        "meta_bstar": 0.00030181714,
        "meta_mean_motion_dot": 1.3e-07,
        "meta_mean_motion_ddot": 0,
        "tle_line1": "1 66514U 25264A   25339.31345389  .00000013  00000+0  30182-3 0  9999",
        "tle_line2": "2 66514  66.0393 177.9170 0011548 268.4031  91.5664 12.85877769  2335"
      },
      "geometry": {
        "type": "Point",
        "coordinates": [
          74.3447910024629,
          -65.80611772435671
        ]
      }
    }
  ]
}